ONEWEB-0029             
1 45445U 20020X   25355.16921832  .00000670  00000+0  18555-2 0  9996
2 45445  87.8860  56.5108 0001866 100.0914 260.0425 13.11417725279326
ONEWEB-0068             
1 45446U 20020Y   25355.15297500  .00000345  00000+0  93747-3 0  9990
2 45446  87.8858  56.5032 0001913  99.9737 260.1606 13.11419776279265
ONEWEB-0046             
1 45447U 20020Z   25355.22093882 -.00000081  00000+0 -26309-3 0  9995
2 45447  87.8859  56.4975 0001932 108.1422 251.9917 13.11418164279282
ONEWEB-0063             
1 45448U 20020AA  25355.17345751  .00000499  00000+0  13730-2 0  9999
2 45448  87.8856  56.5042 0001875 112.1113 248.0214 13.11419582279365
ONEWEB-0019             
1 45449U 20020AB  25355.21562855 -.00000261  00000+0 -76600-3 0  9996
2 45449  87.8846  56.5012 0001690  97.7770 262.3550 13.11993243279211
ONEWEB-0094             
1 45450U 20020AC  25355.20855713  .00000005  00000+0 -19212-4 0  9997
2 45450  87.9114  41.2224 0001861  94.3547 265.7798 13.17647732282875
ONEWEB-0087             
1 45451U 20020AD  25354.87830916 -.00000024  00000+0 -10491-3 0  9999
2 45451  87.8866  56.5228 0002054  98.5433 261.5928 13.11413991279212
ONEWEB-0082             
1 45452U 20020AE  25355.10394260  .00000289  00000+0  77958-3 0  9996
2 45452  87.8866  56.5030 0001988  98.0817 262.0537 13.11413606279338
ONEWEB-0050             
1 45453U 20020AF  25355.17182717  .00002045  00000+0  21211-3 0  9999
2 45453  88.9240 257.4931 0000579 211.3756 148.7439 14.89600295313873
ONEWEB-0034             
1 45454U 20020AG  25355.20142574 -.00000470  00000+0 -13610-2 0  9996
2 45454  87.8850  56.4967 0001778 101.0002 259.1326 13.11416387279263
ONEWEB-0060             
1 45455U 20020AH  25354.63852631  .00000415  00000+0  11355-2 0  9996
2 45455  87.8847  56.6255 0002736  89.7420 270.4022 13.11416985279143
ONEWEB-0086             
1 45456U 20020AJ  25355.15141735  .00000347  00000+0  94212-3 0  9999
2 45456  87.8857  56.5035 0001968  79.1353 280.9996 13.11419530279273
ONEWEB-0088             
1 45457U 20020AK  25355.12937923 -.00000468  00000+0 -13552-2 0  9992
2 45457  87.8870  56.4648 0001915 109.7028 250.4307 13.11413286279202
ONEWEB-0102             
1 47258U 20100A   25355.12022607 -.00000401  00000+0 -11489-2 0  9990
2 47258  87.8929  26.0551 0001641  93.0972 267.0344 13.12553220241379
ONEWEB-0109             
1 47259U 20100B   25355.05242831 -.00000123  00000+0 -37658-3 0  9994
2 47259  87.8936  26.0381 0001689  93.0817 267.0505 13.12504347241194
ONEWEB-0110             
1 47260U 20100C   25355.15571804  .00001412  00000+0  38937-2 0  9992
2 47260  87.8949  26.0027 0001669  82.4200 277.7118 13.12358589241376
ONEWEB-0111             
1 47261U 20100D   25355.10998659 -.00000272  00000+0 -79080-3 0  9999
2 47261  87.8931  26.0283 0001747  94.5924 265.5404 13.12392586241206
ONEWEB-0114             
1 47262U 20100E   25355.14051079  .00000235  00000+0  61887-3 0  9993
2 47262  87.8936  26.0174 0001456  98.1288 262.0006 13.12438097241164
ONEWEB-0117             
1 47263U 20100F   25355.05580945 -.00000216  00000+0 -63576-3 0  9991
2 47263  87.8930  26.0310 0001790  95.6389 264.4944 13.12485476241166
ONEWEB-0118             
1 47264U 20100G   25355.01339579  .00000348  00000+0  93409-3 0  9995
2 47264  87.8933  26.0397 0001592 106.5889 253.5414 13.12293539241351
ONEWEB-0119             
1 47265U 20100H   25355.11515865 -.00000405  00000+0 -11578-2 0  9993
2 47265  87.8922  26.0522 0001704  93.6112 266.5212 13.12581665241349
ONEWEB-0120             
1 47266U 20100J   25354.83399947  .00000060  00000+0  13195-3 0  9996
2 47266  87.8927  26.1094 0001746  95.0992 265.0335 13.12446196241336
ONEWEB-0121             
1 47267U 20100K   25355.05075731 -.00000300  00000+0 -86876-3 0  9999
2 47267  87.8938  26.0362 0001908  90.4523 269.6824 13.12515438241277
ONEWEB-0122             
1 47268U 20100L   25355.04556400 -.00000797  00000+0 -22491-2 0  9998
2 47268  87.8945  26.0395 0001837  91.0251 269.1088 13.12529186241180
ONEWEB-0123             
1 47269U 20100M   25355.11682966 -.00000438  00000+0 -12495-2 0  9999
2 47269  87.8924  26.0502 0001763  99.5067 260.6261 13.12570637241337
ONEWEB-0124             
1 47270U 20100N   25355.10661135 -.00000105  00000+0 -32867-3 0  9992
2 47270  87.8928  26.0574 0001949  96.6356 263.4994 13.12413076241211
ONEWEB-0125             
1 47271U 20100P   25355.08454872  .00000929  00000+0  25504-2 0  9999
2 47271  87.8934  26.0256 0002024 101.5292 258.6064 13.12326205241273
ONEWEB-0126             
1 47272U 20100Q   25355.10505532 -.00000098  00000+0 -30755-3 0  9997
2 47272  87.8933  26.0445 0001631  95.5270 264.6045 13.12423381241341
ONEWEB-0127             
1 47273U 20100R   25355.14725629  .00000253  00000+0  66888-3 0  9990
2 47273  87.8930  26.0458 0001635  95.6265 264.5050 13.12403312241372
ONEWEB-0128             
1 47274U 20100S   25355.16933995  .00000319  00000+0  84998-3 0  9995
2 47274  87.8923  26.0577 0001887  83.9002 276.2341 13.12490780241395
ONEWEB-0129             
1 47275U 20100T   25355.14896067  .00000277  00000+0  73413-3 0  9995
2 47275  87.8937  26.0172 0000627  84.1575 275.9625 13.12390217241329
ONEWEB-0130             
1 47276U 20100U   25355.09985906 -.00000255  00000+0 -74458-3 0  9999
2 47276  87.8933  26.0209 0001720  92.1239 268.0087 13.12447518241285
ONEWEB-0131             
1 47277U 20100V   25355.17269680  .00000220  00000+0  57474-3 0  9992
2 47277  87.8934  26.0371 0001738  94.1366 265.9961 13.12471289241334
ONEWEB-0132             
1 47278U 20100W   25355.04906619 -.00000251  00000+0 -73349-3 0  9994
2 47278  87.8933  26.0626 0001816  93.4977 266.6359 13.12524563241214
ONEWEB-0133             
1 47279U 20100X   25355.14205243  .00000479  00000+0  12953-2 0  9994
2 47279  87.8934  26.0070 0001719  92.0020 268.1305 13.12430118241383
ONEWEB-0134             
1 47280U 20100Y   25355.11167891 -.00000299  00000+0 -86649-3 0  9995
2 47280  87.8932  26.0080 0001707  87.3107 272.8217 13.12383163241352
ONEWEB-0135             
1 47281U 20100Z   25355.15911787  .00000469  00000+0  12711-2 0  9996
2 47281  87.8933  26.0385 0001816  83.3366 276.7969 13.12332694241389
ONEWEB-0136             
1 47282U 20100AA  25355.02530024  .00000011  00000+0 -40723-5 0  9995
2 47282  87.8933  26.0343 0001597  84.3788 275.7523 13.12440334241295
ONEWEB-0137             
1 47283U 20100AB  25355.05921225 -.00000004  00000+0 -45249-4 0  9996
2 47283  87.8936  26.0335 0001789  99.7287 260.4044 13.12467476241203
ONEWEB-0138             
1 47284U 20100AC  25355.11344643 -.00000299  00000+0 -86502-3 0  9999
2 47284  87.8932  26.0310 0001642  90.4441 269.6876 13.12589290241293
ONEWEB-0139             
1 47285U 20100AD  25355.15417323  .00001607  00000+0  44359-2 0  9995
2 47285  87.8936  26.0129 0001532  96.5465 263.5838 13.12374437241372
ONEWEB-0140             
1 47286U 20100AE  25355.10829641 -.00000216  00000+0 -63589-3 0  9995
2 47286  87.8934  26.0088 0001697  91.8285 268.3038 13.12401851241337
ONEWEB-0141             
1 47287U 20100AF  25355.15390018  .00000921  00000+0  25285-2 0  9993
2 47287  87.8940  26.0095 0001479 102.3374 257.7921 13.12364927241322
ONEWEB-0142             
1 47288U 20100AG  25355.14235166  .00000490  00000+0  13265-2 0  9991
2 47288  87.8939  26.0344 0001335 103.6770 256.4508 13.12434181241319
ONEWEB-0143             
1 47289U 20100AH  25355.15234073  .00000392  00000+0  10552-2 0  9996
2 47289  87.8932  26.0280 0001784  96.5756 263.5575 13.12372560241296
ONEWEB-0144             
1 47290U 20100AJ  25355.04737306 -.00000279  00000+0 -81040-3 0  9990
2 47290  87.8940  26.0170 0001399  90.5251 269.6038 13.12533793241200
ONEWEB-0145             
1 47291U 20100AK  25355.01853516  .00000242  00000+0  63730-3 0  9994
2 47291  87.8940  26.0621 0001744  96.6767 263.4560 13.12481146241391
ONEWEB-0146             
1 47292U 20100AL  25355.01518225  .00000317  00000+0  84415-3 0  9996
2 47292  87.8931  26.0486 0002153  94.4270 265.7105 13.12500133241300
ONEWEB-0147             
1 47293U 20100AM  25355.05751458  .00000018  00000+0  13888-4 0  9993
2 47293  87.8924  26.0184 0001796  86.5272 273.6062 13.12474663241201
ONEWEB-0115             
1 48042U 21025A   25354.92013478  .00000317  00000+0  83415-3 0  9995
2 48042  87.8983 355.6456 0001794  89.5069 270.6266 13.13471452230190
ONEWEB-0152             
1 48043U 21025B   25354.93368459  .00000170  00000+0  43080-3 0  9990
2 48043  87.8976 355.6491 0001909  89.0684 271.0664 13.13470564230154
ONEWEB-0153             
1 48044U 21025C   25354.53079000  .00000256  00000+0  66521-3 0  9998
2 48044  87.8979 355.7350 0001712  91.0426 269.0899 13.13471898230093
ONEWEB-0154             
1 48045U 21025D   25354.45122010  .00000271  00000+0  70757-3 0  9993
2 48045  87.8980 355.7473 0001779  87.4402 272.6931 13.13472069230041
ONEWEB-0116             
1 48046U 21025E   25355.25193181 -.00000116  00000+0 -35281-3 0  9993
2 48046  87.8982 355.5725 0001924  89.0059 271.1290 13.13467539230295
ONEWEB-0150             
1 48047U 21025F   25355.30441933  .00000320  00000+0  84157-3 0  9992
2 48047  87.8983 355.5581 0001748  96.1942 263.9386 13.13468521230197
ONEWEB-0107             
1 48048U 21025G   25355.30610648  .00000224  00000+0  57976-3 0  9996
2 48048  87.8983 355.5544 0001478  90.0700 270.0598 13.13471184230173
ONEWEB-0101             
1 48049U 21025H   25355.26885069 -.00000327  00000+0 -92914-3 0  9990
2 48049  87.8976 355.5942 0001669  84.9798 275.1522 13.13468624230144
ONEWEB-0113             
1 48050U 21025J   25355.28183147  .00000063  00000+0  13635-3 0  9990
2 48050  87.8984 355.5194 0001971  93.2468 266.8887 13.13986123230248
ONEWEB-0112             
1 48051U 21025K   25355.23499731  .00000242  00000+0  62782-3 0  9991
2 48051  87.8987 355.5658 0001743  92.1474 267.9855 13.13471593230235
